NORAD_CAT_ID,OBJECT_NAME,OBJECT_TYPE,EPOCH,MEAN_MOTION,ECCENTRICITY,INCLINATION,RA_OF_ASC_NODE,ARG_OF_PERICENTER,MEAN_ANOMALY,BSTAR,MEAN_MOTION_DOT,MEAN_MOTION_DDOT,TLE_LINE0,TLE_LINE1,TLE_LINE2,SEMIMAJOR_AXIS,PERIOD,APOGEE,PERIGEE,DECAYED
49144.0,STARLINK-3100,PAYLOAD,2024-04-25 14:43:20,14.98327648,0.0003182,70.0007,216.7227,268.7648,91.3147,2.1172e-05,1.6e-06,0.0,0 STARLINK-3100,1 49144U 21082Q   24116.61343499  .00000160  00000-0  21172-4 0  9992,2 49144  70.0007 216.7227 0003182 268.7648  91.3147 14.98327648143667,6950.2,96.107,574.277,569.854,0.0
49144.0,STARLINK-3100,PAYLOAD,2024-04-25 16:19:28,14.98328706,0.0003125,70.001,216.5552,267.4565,92.6237,4.4067e-05,4.33e-06,0.0,0 STARLINK-3100,1 49144U 21082Q   24116.68019390  .00000433  00000-0  44067-4 0  9990,2 49144  70.0010 216.5552 0003125 267.4565  92.6237 14.98328706143672,6950.197,96.107,574.234,569.89,0.0
49144.0,STARLINK-3100,PAYLOAD,2024-04-26 13:09:13,14.98335217,0.0002805,70.0018,214.3691,256.1756,103.9091,0.00011478,1.277e-05,0.0,0 STARLINK-3100,1 49144U 21082Q   24117.54806844  .00001277  00000-0  11478-3 0  9990,2 49144  70.0018 214.3691 0002805 256.1756 103.9091 14.98335217143805,6950.177,96.107,573.991,570.092,0.0
49144.0,STARLINK-3100,PAYLOAD,2024-04-26 14:45:21,14.98336051,0.0002953,70.0011,214.1991,261.2887,98.7938,0.00013289,1.493e-05,0.0,0 STARLINK-3100,1 49144U 21082Q   24117.61482754  .00001493  00000-0  13289-3 0  9990,2 49144  70.0011 214.1991 0002953 261.2887  98.7938 14.98336051143814,6950.174,96.107,574.092,569.987,0.0
49144.0,STARLINK-3100,PAYLOAD,2024-04-26 16:21:29,14.9833571,0.0002715,70.0023,214.0329,253.7407,106.3454,0.00014011,1.579e-05,0.0,0 STARLINK-3100,1 49144U 21082Q   24117.68158795  .00001579  00000-0  14011-3 0  9991,2 49144  70.0023 214.0329 0002715 253.7407 106.3454 14.98335710143822,6950.175,96.107,573.927,570.153,0.0
49144.0,STARLINK-3100,PAYLOAD,2024-04-27 13:11:13,14.98350548,0.0002609,70.0029,211.8438,258.8383,101.2483,0.00033262,3.88e-05,0.0,0 STARLINK-3100,1 49144U 21082Q   24118.54945791  .00003880  00000-0  33262-3 0  9993,2 49144  70.0029 211.8438 0002609 258.8383 101.2483 14.98350548143951,6950.129,96.106,573.808,570.181,0.0
49144.0,STARLINK-3100,PAYLOAD,2024-04-27 16:23:29,14.9835163,0.000272,70.0031,211.5073,261.1949,98.8903,0.00049602,5.834e-05,0.0,0 STARLINK-3100,1 49144U 21082Q   24118.68297826  .00005834  00000-0  49602-3 0  9993,2 49144  70.0031 211.5073 0002720 261.1949  98.8903 14.98351630143978,6950.126,96.106,573.881,570.101,0.0
49144.0,STARLINK-3100,PAYLOAD,2024-04-28 05:12:34,14.98327551,0.0002892,70.0026,210.1606,260.4969,99.5864,-0.00025092,-3.085e-05,0.0,0 STARLINK-3100,1 49144U 21082Q   24119.21706624 -.00003085  00000-0 -25092-3 0  9999,2 49144  70.0026 210.1606 0002892 260.4969  99.5864 14.98327551144052,6950.2,96.107,574.075,570.055,0.0
49144.0,STARLINK-3100,PAYLOAD,2024-04-28 14:49:23,14.98317512,0.0003026,70.0019,209.1498,262.6365,97.445,-0.00045016,-5.458e-05,0.0,0 STARLINK-3100,1 49144U 21082Q   24119.61763053 -.00005458  00000-0 -45016-3 0  9996,2 49144  70.0019 209.1498 0003026 262.6365  97.4450 14.98317512144116,6950.232,96.108,574.2,569.993,0.0
49144.0,STARLINK-3100,PAYLOAD,2024-04-28 16:25:31,14.98319487,0.0003117,70.0013,208.9793,264.2186,95.8618,-0.00035294,-4.301e-05,0.0,0 STARLINK-3100,1 49144U 21082Q   24119.68439023 -.00004301  00000-0 -35294-3 0  9993,2 49144  70.0013 208.9793 0003117 264.2186  95.8618 14.98319487144127,6950.225,96.108,574.257,569.924,0.0
49144.0,STARLINK-3100,PAYLOAD,2024-04-29 05:14:34,14.98344114,0.0003676,70.0028,207.6354,275.2653,84.8086,0.00051175,6.021e-05,0.0,0 STARLINK-3100,1 49144U 21082Q   24120.21845991  .00006021  00000-0  51175-3 0  9994,2 49144  70.0028 207.6354 0003676 275.2653  84.8086 14.98344114144204,6950.149,96.106,574.569,569.459,0.0
49144.0,STARLINK-3100,PAYLOAD,2024-04-29 13:15:14,14.98366578,0.0002708,70.0022,206.7936,268.8159,91.269,0.001093,0.00012985,0.0,0 STARLINK-3100,1 49144U 21082Q   24120.55224817  .00012985  00000-0  10930-2 0  9998,2 49144  70.0022 206.7936 0002708 268.8159  91.2690 14.98366578144254,6950.08,96.105,573.827,570.063,0.0
49144.0,STARLINK-3100,PAYLOAD,2024-04-29 14:51:22,14.98369357,0.0002629,70.0024,206.625,267.441,92.6448,0.0014951,0.0001781,0.0,0 STARLINK-3100,1 49144U 21082Q   24120.61900874  .00017810  00000-0  14951-2 0  9998,2 49144  70.0024 206.6250 0002629 267.4410  92.6448 14.98369357144266,6950.071,96.104,573.763,570.109,0.0
49144.0,STARLINK-3100,PAYLOAD,2024-04-30 05:16:35,14.98324398,0.000316,70.0018,205.1086,260.1712,99.9091,-0.0011434,-0.00013707,0.0,0 STARLINK-3100,1 49144U 21082Q   24121.21985055 -.00013707  00000-0 -11434-2 0  9995,2 49144  70.0018 205.1086 0003160 260.1712  99.9091 14.98324398144356,6950.21,96.107,574.271,569.879,0.0
49144.0,STARLINK-3100,PAYLOAD,2024-04-30 14:53:23,14.98316929,0.0003111,70.0016,204.0988,261.0368,99.0439,-0.00077617,-9.339e-05,0.0,0 STARLINK-3100,1 49144U 21082Q   24121.62041102 -.00009339  00000-0 -77617-3 0  9998,2 49144  70.0016 204.0988 0003111 261.0368  99.0439 14.98316929144411,6950.233,96.108,574.261,569.936,0.0
49144.0,STARLINK-3100,PAYLOAD,2024-04-30 22:54:04,14.98315346,0.0003255,70.0014,203.2568,261.3263,98.7528,0.00067004,7.908e-05,0.0,0 STARLINK-3100,1 49144U 21082Q   24121.95421769  .00007908  00000-0  67004-3 0  9992,2 49144  70.0014 203.2568 0003255 261.3263  98.7528 14.98315346144462,6950.238,96.108,574.366,569.841,0.0
49144.0,STARLINK-3100,PAYLOAD,2024-05-01 11:43:09,14.98326117,0.0003259,70.0013,201.9105,262.069,98.0099,0.0011514,0.00013671,0.0,0 STARLINK-3100,1 49144U 21082Q   24122.48830276  .00013671  00000-0  11514-2 0  9996,2 49144  70.0013 201.9105 0003259 262.0690  98.0099 14.98326117144542,6950.205,96.107,574.335,569.805,0.0
49144.0,STARLINK-3100,PAYLOAD,2024-05-02 05:20:38,14.98331971,0.0003298,70.0013,200.0584,261.9665,98.112,0.00068397,8.078e-05,0.0,0 STARLINK-3100,1 49144U 21082Q   24123.22266490  .00008078  00000-0  68397-3 0  9997,2 49144  70.0013 200.0584 0003298 261.9665  98.1120 14.98331971144658,6950.187,96.107,574.344,569.76,0.0
49144.0,STARLINK-3100,PAYLOAD,2024-05-02 14:57:26,14.98333935,0.0003313,70.0015,199.0497,263.4464,96.6318,0.00056452,6.65e-05,0.0,0 STARLINK-3100,1 49144U 21082Q   24123.62322548  .00006650  00000-0  56452-3 0  9991,2 49144  70.0015 199.0497 0003313 263.4464  96.6318 14.98333935144713,6950.181,96.107,574.348,569.743,0.0
49144.0,STARLINK-3100,PAYLOAD,2024-05-03 05:22:38,14.98346266,0.0003273,70.0016,197.5344,263.9185,96.1601,0.00072265,8.544e-05,0.0,0 STARLINK-3100,1 49144U 21082Q   24124.22406036  .00008544  00000-0  72265-3 0  9997,2 49144  70.0016 197.5344 0003273 263.9185  96.1601 14.98346266144809,6950.143,96.106,574.282,569.733,0.0
49144.0,STARLINK-3100,PAYLOAD,2024-05-03 14:59:26,14.9835366,0.0003274,70.0018,196.5247,264.7933,95.2852,0.0007429,8.788e-05,0.0,0 STARLINK-3100,1 49144U 21082Q   24124.62461447  .00008788  00000-0  74290-3 0  9998,2 49144  70.0018 196.5247 0003274 264.7933  95.2852 14.98353660144863,6950.12,96.105,574.26,569.709,0.0
49144.0,STARLINK-3100,PAYLOAD,2024-05-04 05:24:39,14.98323748,0.0003756,70.0018,195.0098,273.819,86.2539,-0.00032809,-4.005e-05,0.0,0 STARLINK-3100,1 49144U 21082Q   24125.22546183 -.00004005  00000-0 -32809-3 0  9996,2 49144  70.0018 195.0098 0003756 273.8190  86.2539 14.98323748144958,6950.212,96.107,574.688,569.467,0.0
49144.0,STARLINK-3100,PAYLOAD,2024-05-05 05:26:41,14.98319469,0.0003445,70.0012,192.4843,271.9995,88.0769,0.00025327,2.929e-05,0.0,0 STARLINK-3100,1 49144U 21082Q   24126.22687228  .00002929  00000-0  25327-3 0  9991,2 49144  70.0012 192.4843 0003445 271.9995  88.0769 14.98319469145106,6950.225,96.108,574.485,569.696,0.0
49144.0,STARLINK-3100,PAYLOAD,2024-05-05 13:27:21,14.98330683,0.0003337,70.0011,191.6429,272.6923,87.3854,0.00028665,3.329e-05,0.0,0 STARLINK-3100,1 49144U 21082Q   24126.56067119  .00003329  00000-0  28665-3 0  9992,2 49144  70.0011 191.6429 0003337 272.6923  87.3854 14.98330683145158,6950.191,96.107,574.375,569.737,0.0
49144.0,STARLINK-3100,PAYLOAD,2024-05-05 21:28:02,14.98335309,0.0003274,70.0011,190.8014,269.9289,90.1495,0.00047497,5.58e-05,0.0,0 STARLINK-3100,1 49144U 21082Q   24126.89447129  .00005580  00000-0  47497-3 0  9996,2 49144  70.0011 190.8014 0003274 269.9289  90.1495 14.98335309145202,6950.176,96.107,574.317,569.766,0.0
49144.0,STARLINK-3100,PAYLOAD,2024-05-06 11:53:14,14.98352341,0.000313,70.0016,189.287,269.8687,90.2113,0.0011376,0.00013515,0.0,0 STARLINK-3100,1 49144U 21082Q   24127.49530823  .00013515  00000-0  11376-2 0  9990,2 49144  70.0016 189.2870 0003130 269.8687  90.2113 14.98352341145293,6950.124,96.106,574.164,569.813,0.0
49144.0,STARLINK-3100,PAYLOAD,2024-05-06 21:30:02,14.98351609,0.0003111,70.0016,188.277,270.1782,89.902,0.00065124,7.69e-05,0.0,0 STARLINK-3100,1 49144U 21082Q   24127.89586381  .00007690  00000-0  65124-3 0  9992,2 49144  70.0016 188.2770 0003111 270.1782  89.9020 14.98351609145356,6950.126,96.106,574.153,569.829,0.0
49144.0,STARLINK-3100,PAYLOAD,2024-05-07 05:30:42,14.98342565,0.0002698,70.0031,187.4355,269.297,90.788,0.00011277,1.253e-05,0.0,0 STARLINK-3100,1 49144U 21082Q   24128.22966392  .00001253  00000-0  11277-3 0  9993,2 49144  70.0031 187.4355 0002698 269.2970  90.7880 14.98342565145401,6950.154,96.106,573.894,570.144,0.0
49144.0,STARLINK-3100,PAYLOAD,2024-05-07 13:31:23,14.98340044,0.0002999,70.0013,186.5941,269.4999,90.5816,0.00018603,2.128e-05,0.0,0 STARLINK-3100,1 49144U 21082Q   24128.56346374  .00002128  00000-0  18603-3 0  9994,2 49144  70.0013 186.5941 0002999 269.4999  90.5816 14.98340044145451,6950.162,96.106,574.111,569.942,0.0
49144.0,STARLINK-3100,PAYLOAD,2024-05-08 05:32:43,14.98340679,0.0002928,70.0009,184.9112,269.8256,90.2568,4.4839e-05,4.42e-06,0.0,0 STARLINK-3100,1 49144U 21082Q   24129.23106049  .00000442  00000-0  44839-4 0  9990,2 49144  70.0009 184.9112 0002928 269.8256  90.2568 14.98340679145556,6950.16,96.106,574.06,569.99,0.0
